GSAT0101 (PRN E11)      
1 37846U 11060A   22116.04535726 -.00000110  00000-0  00000+0 0  9992
2 37846  56.9772  22.7608 0004220  14.8651 345.1579  1.70475010 65453
GSAT0102 (PRN E12)      
1 37847U 11060B   22116.15835958 -.00000110  00000-0  00000+0 0  9995
2 37847  56.9784  22.7572 0004708 347.9913 127.9785  1.70475329 65457
GSAT0103 (PRN E19)      
1 38857U 12055A   22115.49875900  .00000059  00000-0  00000-0 0  9991
2 38857  55.1208 143.1535 0005422 266.4597  93.5426  1.70473644 59209
GSAT0104 (PRN E20)      
1 38858U 12055B   22114.29579568  .00000053  00000-0  00000-0 0  9994
2 38858  55.1210 143.1878 0002977 264.8264  95.2001  1.70473912 59181
GSAT0201 (PRN E18)      
1 40128U 14050A   22114.30941376 -.00000080  00000-0  00000-0 0  9997
2 40128  50.3167 334.4384 1629815 122.0604 254.8197  1.85518835 50213
GSAT0202 (PRN E14)      
1 40129U 14050B   22115.64860170 -.00000084  00000-0  00000-0 0  9992
2 40129  50.3418 333.4441 1626841 122.9173 253.7976  1.85519428 52407
GSAT0203 (PRN E26)      
1 40544U 15017A   22115.82624804 -.00000109  00000-0  00000+0 0  9996
2 40544  56.7725  22.8069 0002461 293.3440  66.6405  1.70475541 44061
GSAT0204 (PRN E22)      
1 40545U 15017B   22115.49233202 -.00000108  00000-0  00000+0 0  9997
2 40545  56.7783  22.8284 0001706 278.7676  81.2234  1.70475471 44058
GSAT0205 (PRN E24)      
1 40889U 15045A   22114.67281156 -.00000023  00000-0  00000+0 0  9995
2 40889  55.6617 263.4467 0006106  46.5429 313.4652  1.70473680 41191
GSAT0206 (PRN E30)      
1 40890U 15045B   22113.72042364 -.00000013  00000-0  00000-0 0  9998
2 40890  55.6598 263.4687 0003158  26.2203 333.7560  1.70473663 41200
GSAT0209 (PRN E09)      
1 41174U 15079A   22114.48187470  .00000054  00000-0  00000+0 0  9996
2 41174  55.1373 142.8845 0005370 300.7346  59.2732  1.70474659 39534
GSAT0208 (PRN E08)      
1 41175U 15079B   22115.28790086  .00000058  00000-0  00000+0 0  9993
2 41175  55.1358 142.8611 0004642 299.2282  60.7887  1.70474726 39545
GSAT0211 (PRN E02)      
1 41549U 16030A   22113.64763927 -.00000012  00000-0  00000-0 0  9990
2 41549  55.8061 263.3977 0003254 350.9455   9.0091  1.70475121 36839
GSAT0210 (PRN E01)      
1 41550U 16030B   22114.52687325 -.00000021  00000-0  00000+0 0  9996
2 41550  55.8045 263.3751 0001749 313.1633  46.7800  1.70475320 36825
GSAT0207 (PRN E07)      
1 41859U 16069A   22115.36116072  .00000057  00000-0  00000+0 0  9997
2 41859  54.7974 143.0548 0005628 289.8530  70.1500  1.70473356 33810
GSAT0212 (PRN E03)      
1 41860U 16069B   22115.21456565  .00000057  00000-0  00000-0 0  9998
2 41860  54.7950 143.0566 0004076 305.5960  54.4292  1.70473386 33844
GSAT0213 (PRN E04)      
1 41861U 16069C   22116.16661273  .00000061  00000-0  00000+0 0  9992
2 41861  54.7978 143.0352 0005429 272.7033  87.3008  1.70473432 33850
GSAT0214 (PRN E05)      
1 41862U 16069D   22115.14050633  .00000056  00000-0  00000-0 0  9997
2 41862  54.7958 143.0582 0004477 275.3864  84.6254  1.70473493 33835
GSAT0215 (PRN E21)      
1 43055U 17079A   22115.63117843 -.00000031  00000-0  00000-0 0  9990
2 43055  55.7798 263.1766 0001124 312.0095  47.9338  1.70474445 27187
GSAT0216 (PRN E25)      
1 43056U 17079B   22115.33686027 -.00000029  00000-0  00000+0 0  9999
2 43056  55.7804 263.1845 0002755 293.7304  66.1950  1.70474552 27163
GSAT0217 (PRN E27)      
1 43057U 17079C   22114.38392738 -.00000020  00000-0  00000-0 0  9999
2 43057  55.7783 263.2104 0002689 316.9078  43.0295  1.70474431 27163
GSAT0218 (PRN E31)      
1 43058U 17079D   22114.60393776 -.00000022  00000-0  00000-0 0  9990
2 43058  55.7792 263.2019 0003107 285.7990  74.1243  1.70474452 27195
GSAT0221 (PRN E15)      
1 43564U 18060A   22115.08890246 -.00000107  00000-0  00000-0 0  9994
2 43564  57.1551  22.6293 0003667 307.5816  52.3963  1.70475333 23358
GSAT0222 (PRN E33)      
1 43565U 18060B   22113.54900036 -.00000101  00000-0  00000-0 0  9997
2 43565  57.1566  22.6714 0003786 317.5604  42.4238  1.70475267 23374
GSAT0219 (PRN E36)      
1 43566U 18060C   22114.94273336 -.00000106  00000-0  00000-0 0  9994
2 43566  57.1578  22.6354 0003492 321.8486  38.1379  1.70475342 23370
GSAT0220 (PRN E13)      
1 43567U 18060D   22115.16281494 -.00000107  00000-0  00000-0 0  9995
2 43567  57.1575  22.6294 0003344 316.2673  43.7174  1.70475197 23365
GSAT0223                
1 49809U 21116A   22115.31072383 -.00000108  00000-0  00000-0 0  9999
2 49809  57.1504  22.5239 0000258  76.8007 103.9256  1.70475316  2372
GSAT0224                
1 49810U 21116B   22110.87646125 -.00000088  00000-0  00000-0 0  9995
2 49810  57.1498  22.6425 0000842  30.7966  61.0210  1.70475115  2322
